     2.11           N: GPS NAV DATA                         RINEX VERSION / TYPE
teqc  2018Dec12     gpsops              20220320 01:04:04UTCPGM / RUN BY / DATE
Linux 2.6.32-573.12.1.x86_64|x86_64|gcc -static|Linux 64|=+ COMMENT
CHPI                                    MARKER NAME         COMMENT
41609M003                               MARKER NUMBER       COMMENT
4164613.9484 -4162456.9866 -2445028.7316                    COMMENT
                                                            COMMENT
This data is provided as a public service by NASA/JPL.      COMMENT
No warranty is expressed or implied regarding suitability   COMMENT
for use.  For further information, contact:                 COMMENT
Dave Stowers, NASA/JPL m/s 238-600                          COMMENT
4800 Oak Grove Drive, Pasadena CA 91109 USA                 COMMENT
                                                            END OF HEADER
 7 22  3 19 19 59 44.0 3.168187104166D-04 1.818989403546D-12 0.000000000000D+00
    8.000000000000D+00 6.678125000000D+01 4.591619830825D-09-6.116590850046D-01
    3.742054104805D-06 1.570759387687D-02 1.128017902374D-05 5.153688608170D+03
    5.903840000000D+05 5.774199962616D-08 7.198443551496D-01 2.831220626831D-07
    9.512434060546D-01 1.605000000000D+02-2.284515097235D+00-8.283559329210D-09
    3.689439394246D-10 1.000000000000D+00 2.201000000000D+03 0.000000000000D+00
    2.000000000000D+00 0.000000000000D+00-1.117587089539D-08 8.000000000000D+00
    5.832180000000D+05 4.000000000000D+00
 6 22  3 19 20  0  0.0 2.369340509176D-04 1.284661266254D-11 0.000000000000D+00
    6.800000000000D+01 3.640625000000D+01 3.688725078777D-09 3.482589293309D-01
    1.817941665649D-06 2.693335525692D-03 1.220963895321D-05 5.153691776276D+03
    5.904000000000D+05-1.303851604462D-08-2.423109839222D+00-6.705522537231D-08
    9.867102222699D-01 1.607500000000D+02-9.124590003113D-01-7.647104246872D-09
    2.125088518467D-10 1.000000000000D+00 2.201000000000D+03 0.000000000000D+00
    2.000000000000D+00 0.000000000000D+00 3.725290298462D-09 6.800000000000D+01
    5.842380000000D+05 4.000000000000D+00
30 22  3 19 20  0  0.0-5.195671692491D-04-1.932676241267D-12 0.000000000000D+00
    6.300000000000D+01 6.625000000000D+01 4.845916137572D-09-5.471143127986D-01
    3.559514880180D-06 5.574073875323D-03 1.097097992897D-05 5.153802646637D+03
    5.904000000000D+05 7.636845111847D-08 7.324777089910D-01 4.842877388000D-08
    9.363924673620D-01 1.541875000000D+02-2.738322572664D+00-8.287488064286D-09
    3.810873023872D-10 1.000000000000D+00 2.201000000000D+03 0.000000000000D+00
    2.000000000000D+00 0.000000000000D+00 3.725290298462D-09 6.300000000000D+01
    5.864760000000D+05 4.000000000000D+00
 8 22  3 19 20  0  0.0-6.049824878573D-05-1.477928890381D-12 0.000000000000D+00
    1.090000000000D+02-1.028750000000D+02 4.618406660890D-09 2.289544264343D+00
   -5.206093192101D-06 7.403827621602D-03 8.368864655495D-06 5.153736150742D+03
    5.904000000000D+05-1.061707735062D-07 2.788499950341D+00 8.009374141693D-08
    9.644720168737D-01 2.235312500000D+02 1.337783504624D-01-8.153553913962D-09
   -5.553802766749D-10 1.000000000000D+00 2.201000000000D+03 0.000000000000D+00
    2.800000000000D+00 0.000000000000D+00 5.122274160385D-09 1.090000000000D+02
    5.903880000000D+05 4.000000000000D+00
 3 22  3 19 22  0  0.0-1.709004864097D-04-1.659827830736D-11 0.000000000000D+00
    6.700000000000D+01 2.981250000000D+01 4.771984486594D-09-2.218814433956D-02
    1.555308699608D-06 3.950454411097D-03 3.881752490997D-06 5.153652345657D+03
    5.976000000000D+05-2.048909664154D-08-1.380020274149D+00 4.284083843231D-08
    9.725368969911D-01 3.086562500000D+02 9.462662339812D-01-8.436422839446D-09
    1.396486740707D-10 1.000000000000D+00 2.201000000000D+03 0.000000000000D+00
    2.000000000000D+00 0.000000000000D+00 1.862645149231D-09 6.700000000000D+01
    5.904180000000D+05 4.000000000000D+00
 7 22  3 19 22  0  0.0 3.168322145939D-04 1.818989403546D-12 0.000000000000D+00
    1.100000000000D+01 6.409375000000D+01 4.548760902721D-09 4.407982613598D-01
    3.512948751450D-06 1.570727874059D-02 1.187250018120D-05 5.153687906265D+03
    5.976000000000D+05-1.974403858185D-07 7.197850996528D-01 2.440065145493D-07
    9.512459778646D-01 1.493125000000D+02-2.284465586236D+00-8.230699984549D-09
    2.553677799502D-10 1.000000000000D+00 2.201000000000D+03 0.000000000000D+00
    2.000000000000D+00 0.000000000000D+00-1.117587089539D-08 1.100000000000D+01
    5.904180000000D+05 4.000000000000D+00
 4 22  3 19 22  0  0.0-1.824428327382D-04 2.728484105319D-12 0.000000000000D+00
    3.600000000000D+01-7.881250000000D+01 4.501258924073D-09 2.856500500780D+00
   -4.079192876816D-06 1.741298357956D-03 9.423121809959D-06 5.153643026352D+03
    5.976000000000D+05 2.235174179077D-08-2.983736759127D-01-2.607703208923D-08
    9.615213330516D-01 1.982812500000D+02-3.011329404151D+00-8.113552247732D-09
   -5.743096365873D-10 1.000000000000D+00 2.201000000000D+03 0.000000000000D+00
    2.000000000000D+00 0.000000000000D+00-4.190951585770D-09 3.600000000000D+01
    5.904180000000D+05 4.000000000000D+00
 9 22  3 19 22  0  0.0-3.488436341286D-04 2.046363078989D-12 0.000000000000D+00
    4.600000000000D+01-8.296875000000D+01 4.658051169385D-09-2.526832947363D+00
   -4.291534423828D-06 2.158871153370D-03 8.683651685715D-06 5.153603593826D+03
    5.976000000000D+05 1.005828380585D-07-3.515771610800D-01-4.097819328308D-08
    9.544902035139D-01 2.102187500000D+02 1.875910214893D+00-8.181412217230D-09
   -6.107397254753D-10 1.000000000000D+00 2.201000000000D+03 0.000000000000D+00
    2.000000000000D+00 0.000000000000D+00 1.396983861923D-09 4.600000000000D+01
    5.904180000000D+05 4.000000000000D+00
 6 22  3 19 22  0  0.0 2.370267175138D-04 1.284661266254D-11 0.000000000000D+00
    8.800000000000D+01 2.850000000000D+01 3.755870732806D-09 1.398605587731D+00
    1.441687345505D-06 2.693623770028D-03 1.196190714836D-05 5.153691413879D+03
    5.976000000000D+05 3.911554813385D-08-2.423164749852D+00-4.097819328308D-08
    9.867119338840D-01 1.587500000000D+02-9.126421547290D-01-7.603173845566D-09
    2.064371703653D-10 1.000000000000D+00 2.201000000000D+03 0.000000000000D+00
    2.000000000000D+00 0.000000000000D+00 3.725290298462D-09 8.800000000000D+01
    5.904180000000D+05 4.000000000000D+00
16 22  3 19 22  0  0.0-4.825484938920D-04-4.320099833421D-12 0.000000000000D+00
    3.800000000000D+01 2.281250000000D+01 4.916990526677D-09-2.051992864642D+00
    8.791685104370D-07 1.280041551217D-02 2.073124051094D-06 5.153614459991D+03
    5.976000000000D+05 1.341104507446D-07 1.851586308173D+00-1.210719347000D-07
    9.694993114464D-01 3.398125000000D+02 7.182489654495D-01-8.436779997180D-09
    3.435857402966D-10 1.000000000000D+00 2.201000000000D+03 0.000000000000D+00
    2.000000000000D+00 0.000000000000D+00-1.024454832077D-08 3.800000000000D+01
    5.904180000000D+05 4.000000000000D+00
30 22  3 19 22  0  0.0-5.195811390877D-04-1.932676241267D-12 0.000000000000D+00
    6.800000000000D+01 6.031250000000D+01 4.839844456091D-09 5.029674243035D-01
    3.265216946602D-06 5.572671769187D-03 1.147575676441D-05 5.153799991608D+03
    5.976000000000D+05 3.539025783539D-08 7.324184037549D-01 1.452863216400D-07
    9.363953346814D-01 1.458125000000D+02-2.738299089903D+00-8.228557038144D-09
    3.425142670940D-10 1.000000000000D+00 2.201000000000D+03 0.000000000000D+00
    2.000000000000D+00 0.000000000000D+00 3.725290298462D-09 6.800000000000D+01
    5.904180000000D+05 4.000000000000D+00
 1 22  3 19 22  0  0.0 4.049390554428D-04-9.094947017729D-12 0.000000000000D+00
    5.600000000000D+01 2.668750000000D+01 3.780157458731D-09 1.115747827238D+00
    1.650303602219D-06 1.156368409283D-02 1.337192952633D-05 5.153675973892D+03
    5.976000000000D+05-1.210719347000D-07-2.414895024631D+00 1.732259988785D-07
    9.873417230430D-01 1.379062500000D+02 8.844761672397D-01-7.813182593274D-09
    2.314382117591D-10 1.000000000000D+00 2.201000000000D+03 0.000000000000D+00
    2.000000000000D+00 0.000000000000D+00 5.122274160385D-09 5.600000000000D+01
    5.904180000000D+05 4.000000000000D+00
26 22  3 19 22  0  0.0 1.921127550304D-04 2.955857780762D-12 0.000000000000D+00
    7.600000000000D+01 5.059375000000D+01 5.589518540169D-09-1.128823173982D+00
    2.611428499222D-06 6.927998620085D-03 2.231448888779D-06 5.153712804794D+03
    5.976000000000D+05 1.247972249985D-07 1.708158766572D+00-1.043081283569D-07
    9.378878900181D-01 3.189687500000D+02 3.827232502110D-01-8.900370736166D-09
    3.753727786401D-10 1.000000000000D+00 2.201000000000D+03 0.000000000000D+00
    2.000000000000D+00 0.000000000000D+00 6.984919309616D-09 7.600000000000D+01
    5.904180000000D+05 4.000000000000D+00
 8 22  3 19 22  0  0.0-6.050895899534D-05-1.477928890381D-12 0.000000000000D+00
    1.100000000000D+02-1.069375000000D+02 4.630550023852D-09-2.943529153530D+00
   -5.500391125679D-06 7.404258707538D-03 8.489936590195D-06 5.153735536575D+03
    5.976000000000D+05-9.872019290924D-08 2.788441354621D+00-2.980232238770D-08
    9.644683420234D-01 2.191875000000D+02 1.338097490731D-01-8.105337619846D-09
   -5.271648156734D-10 1.000000000000D+00 2.201000000000D+03 0.000000000000D+00
    2.800000000000D+00 0.000000000000D+00 5.122274160385D-09 1.100000000000D+02
    5.904180000000D+05 4.000000000000D+00
11 22  3 19 22  0  0.0-5.963817238808D-05 8.185452315956D-12 0.000000000000D+00
    1.980000000000D+02 4.140625000000D+01 4.268034923643D-09-2.966057117647D+00
    2.095475792885D-06 2.747601829469D-04 1.149997115135D-05 5.153789363861D+03
    5.976000000000D+05-2.048909664154D-08-2.371908614920D+00-2.048909664154D-08
    9.624374313707D-01 1.600625000000D+02 2.765881114142D+00-7.901757711354D-09
    2.742971398626D-10 1.000000000000D+00 2.201000000000D+03 0.000000000000D+00
    1.024000000000D+03 6.300000000000D+01-8.847564458847D-09 4.540000000000D+02
    5.915880000000D+05 4.000000000000D+00
